NORAD_CAT_ID,OBJECT_NAME,OBJECT_TYPE,EPOCH,MEAN_MOTION,ECCENTRICITY,INCLINATION,RA_OF_ASC_NODE,ARG_OF_PERICENTER,MEAN_ANOMALY,BSTAR,MEAN_MOTION_DOT,MEAN_MOTION_DDOT,TLE_LINE0,TLE_LINE1,TLE_LINE2,SEMIMAJOR_AXIS,PERIOD,APOGEE,PERIGEE,DECAYED
51106.0,STARLINK-3176,PAYLOAD,2022-01-24 16:00:00,15.94267059,0.0054022,53.2177,247.5798,182.6948,35.7721,-0.0019337,-0.00860428,0.0002386,0 STARLINK-3176,1 51106U 22005C   22024.66667824 -.00860428  23860-3 -19337-2 0  9994,2 51106  53.2177 247.5798 0054022 182.6948  35.7721 15.94267059  2198,6668.494000000002,90.324,326.384,254.335,0.0
51106.0,STARLINK-3176,PAYLOAD,2022-01-25 14:00:01,15.92677548,0.0046201,53.2174,242.9054,187.9284,252.0854,-0.0023125,-0.00904854,0.00025715,0 STARLINK-3176,1 51106U 22005C   22025.58334491 -.00904854  25715-3 -23125-2 0  9990,2 51106  53.2174 242.9054 0046201 187.9284 252.0854 15.92677548  2333,6672.931,90.414,325.625,263.966,0.0
51106.0,STARLINK-3176,PAYLOAD,2022-01-25 22:00:00,15.91999232,0.0043383,53.2186,241.211,190.9206,1.1064,-0.0020002,-0.00746352,0.00018077,0 STARLINK-3176,1 51106U 22005C   22025.91667824 -.00746352  18077-3 -20002-2 0  9997,2 51106  53.2186 241.2110 0043383 190.9206   1.1064 15.91999232  2384,6674.826,90.452,325.648,267.733,0.0
51106.0,STARLINK-3176,PAYLOAD,2022-01-26 06:00:00,15.91429408,0.0040097,53.2184,239.515,193.2414,110.0491,-0.0021848,-0.00780046,0.00019454,0 STARLINK-3176,1 51106U 22005C   22026.25001157 -.00780046  19454-3 -21848-2 0  9993,2 51106  53.2184 239.5150 0040097 193.2414 110.0491 15.91429408  2446,6676.419,90.485,325.055,271.514,0.0
51106.0,STARLINK-3176,PAYLOAD,2022-01-26 14:00:01,15.90925207,0.0037713,53.2177,237.8193,193.7917,220.0254,-0.0026624,-0.0091606,0.00025848,0 STARLINK-3176,1 51106U 22005C   22026.58334491 -.00916060  25848-3 -26624-2 0  9997,2 51106  53.2177 237.8193 0037713 193.7917 220.0254 15.90925207  2491,6677.83,90.513,324.879,274.51,0.0
51106.0,STARLINK-3176,PAYLOAD,2022-01-26 22:00:00,15.90320789,0.0034955,53.2176,236.1291,196.4073,327.2754,-0.0026588,-0.0087832999999999,0.00023821,0 STARLINK-3176,1 51106U 22005C   22026.91667824 -.00878330  23821-3 -26588-2 0  9998,2 51106  53.2176 236.1291 0034955 196.4073 327.2754 15.90320789  2544,6679.521,90.548,324.735,278.038,0.0
51106.0,STARLINK-3176,PAYLOAD,2022-01-27 04:00:00,15.89883876,0.003271,53.2172,234.8601,198.9202,316.6955,-0.0027579,-0.00884342,0.00024015,0 STARLINK-3176,1 51106U 22005C   22027.16667824 -.00884342  24015-3 -27579-2 0  9993,2 51106  53.2172 234.8601 0032710 198.9202 316.6955 15.89883876  2586,6680.745,90.573,324.463,280.757,0.0
51106.0,STARLINK-3176,PAYLOAD,2022-01-27 14:00:01,15.89169787,0.0029584,53.2176,232.7463,201.1713,180.1138,-0.0030085,-0.00921355,0.00025685,0 STARLINK-3176,1 51106U 22005C   22027.58334491 -.00921355  25685-3 -30085-2 0  9996,2 51106  53.2176 232.7463 0029584 201.1713 180.1138 15.89169787  1698,6682.746,90.613,324.382,284.841,0.0
51106.0,STARLINK-3176,PAYLOAD,2022-01-27 19:56:56,15.88869862,0.0029877,53.2244,231.4972,204.9447,155.0137,-0.0005225,-0.00161036,1.9089e-05,0 STARLINK-3176,1 51106U 22005C   22027.83121125 -.00161036  19089-4 -52250-3 0  9995,2 51106  53.2244 231.4972 0029877 204.9447 155.0137 15.88869862  2696,6683.587,90.63,325.421,285.4840000000001,0.0
51106.0,STARLINK-3176,PAYLOAD,2022-01-28 06:00:02,15.87979316,0.0024467,53.2175,229.3721,207.9732,28.1767,-0.0030999,-0.00883194,0.00023533,0 STARLINK-3176,1 51106U 22005C   22028.25002315 -.00883194  23533-3 -30999-2 0  9990,2 51106  53.2175 229.3721 0024467 207.9732  28.1767 15.87979316  2769,6686.0859999999975,90.681,324.31,291.592,0.0
51106.0,STARLINK-3176,PAYLOAD,2022-01-28 10:00:00,15.87695339,0.002281,53.2173,228.5286,209.9702,259.3688,-0.0032227,-0.00901965,0.00024379,0 STARLINK-3176,1 51106U 22005C   22028.41667824 -.00901965  24379-3 -32227-2 0  9992,2 51106  53.2173 228.5286 0022810 209.9702 259.3688 15.87695339  2785,6686.8830000000025,90.698,324.001,293.495,0.0
51106.0,STARLINK-3176,PAYLOAD,2022-01-28 14:00:01,15.87410048,0.0021819,53.2176,227.6863,210.9909,131.4271,-0.0033289,-0.00916636,0.00025033,0 STARLINK-3176,1 51106U 22005C   22028.58334491 -.00916636  25033-3 -33289-2 0  9999,2 51106  53.2176 227.6863 0021819 210.9909 131.4271 15.87410048  1855,6687.684,90.714,324.141,294.957,0.0
51106.0,STARLINK-3176,PAYLOAD,2022-01-28 22:00:00,15.86748405,0.0019502,53.2184,226.0057,216.9446,231.1432,-0.0029779,-0.00791287,0.00019096,0 STARLINK-3176,1 51106U 22005C   22028.91667824 -.00791287  19096-3 -29779-2 0  9999,2 51106  53.2184 226.0057 0019502 216.9446 231.1432 15.86748405  2869,6689.543000000002,90.752,324.454,298.362,0.0
51106.0,STARLINK-3176,PAYLOAD,2022-01-29 06:00:00,15.86222254,0.0017515,53.2176,224.3208,219.9997,332.9916,-0.0034288,-0.00811388,0.0,0 STARLINK-3176,1 51106U 22005C   22029.25001157 -.00811388  00000-0 -34288-2 0  9996,2 51106  53.2176 224.3208 0017515 219.9997 332.9916 15.86222254  2917,6691.022,90.782,324.607,301.168,0.0
51106.0,STARLINK-3176,PAYLOAD,2022-01-29 14:00:01,15.85644527,0.0014867,53.2178,222.6395,227.8167,69.3995,-0.003603,-0.00823883,0.0,0 STARLINK-3176,1 51106U 22005C   22029.58334491 -.00823883  00000-0 -36030-2 0  9992,2 51106  53.2178 222.6395 0014867 227.8167  69.3995 15.85644527  2010,6692.648,90.815,324.462,304.563,0.0
51106.0,STARLINK-3176,PAYLOAD,2022-01-29 22:00:00,15.85069261,0.0012617,53.2176,220.9622,237.2755,163.4599,-0.0038133,-0.0084319,0.0,0 STARLINK-3176,1 51106U 22005C   22029.91667824 -.00843190  00000-0 -38133-2 0  9997,2 51106  53.2176 220.9622 0012617 237.2755 163.4599 15.85069261  3025,6694.267,90.848,324.578,307.686,0.0
51106.0,STARLINK-3176,PAYLOAD,2022-01-30 14:00:01,15.83878235,0.0009207,53.2176,217.6057,258.61400000000003,347.0643,-0.0038665,-0.00807018,0.0,0 STARLINK-3176,1 51106U 22005C   22030.58334491 -.00807018  00000-0 -38665-2 0  9992,2 51106  53.2176 217.6057 0009207 258.6140 347.0643 15.83878235  2178,6697.621999999999,90.916,325.654,313.321,0.0
51106.0,STARLINK-3176,PAYLOAD,2022-01-30 22:00:00,15.83297246,0.0007446,53.2175,215.9326,268.1933,78.8939,-0.0040291,-0.00815677,0.0,0 STARLINK-3176,1 51106U 22005C   22030.91667824 -.00815677  00000-0 -40291-2 0  9996,2 51106  53.2175 215.9326 0007446 268.1933  78.8939 15.83297246  3182,6699.261,90.949,326.1140000000001,316.137,0.0
51106.0,STARLINK-3176,PAYLOAD,2022-01-31 14:00:01,15.82130129,0.0001853,53.2178,212.5848,266.9719,280.892,-0.0043137,-0.00822506,0.0,0 STARLINK-3176,1 51106U 22005C   22031.58335648 -.00822506  00000-0 -43137-2 0  9997,2 51106  53.2178 212.5848 0001853 266.9719 280.8920 15.82130129  3282,6702.555,91.017,325.6620000000001,323.178,0.0
51106.0,STARLINK-3176,PAYLOAD,2022-01-31 22:00:01,15.8153611,1.12e-05,53.2175,210.9161,79.8521,207.3132,-0.0043542,-0.00808202,0.0,0 STARLINK-3176,1 51106U 22005C   22031.91668981 -.00808202  00000-0 -43542-2 0  9990,2 51106  53.2175 210.9161 0000112  79.8521 207.3132 15.81536110  2386,6704.233,91.051,326.173,326.023,0.0
51106.0,STARLINK-3176,PAYLOAD,2022-02-01 14:00:01,15.80229979,0.0001244,53.2182,207.5781,78.8158,44.9102,-0.0035615,-0.00635109,0.0,0 STARLINK-3176,1 51106U 22005C   22032.58335648 -.00635109  00000-0 -35615-2 0  9991,2 51106  53.2182 207.5781 0001244  78.8158  44.9102 15.80229979  3447,6707.927,91.126,330.626,328.957,0.0
51106.0,STARLINK-3176,PAYLOAD,2022-02-01 22:00:00,15.79658403,0.0001302,53.2183,205.9142,79.707,141.1301,-0.0037602,-0.00651877,0.0,0 STARLINK-3176,1 51106U 22005C   22032.91667824 -.00651877  00000-0 -37602-2 0  9990,2 51106  53.2183 205.9142 0001302  79.7070 141.1301 15.79658403  3503,6709.545,91.159,332.283,330.536,0.0
51106.0,STARLINK-3176,PAYLOAD,2022-02-02 06:00:00,15.792006400000002,0.0001007,53.2176,204.2454,80.4083,236.8464,-0.0049348,-0.00821142,0.0,0 STARLINK-3176,1 51106U 22005C   22033.25001157 -.00821142  00000-0 -49348-2 0  9993,2 51106  53.2176 204.2454 0001007  80.4083 236.8464 15.79200640  3551,6710.840999999999,91.185,333.38199999999995,332.03,0.0
51106.0,STARLINK-3176,PAYLOAD,2022-02-02 14:00:01,15.78615855,0.000115,53.2176,202.5824,54.2629,358.7704,-0.00508,-0.00822926,0.0,0 STARLINK-3176,1 51106U 22005C   22033.58334491 -.00822926  00000-0 -50800-2 0  9995,2 51106  53.2176 202.5824 0001150  54.2629 358.7704 15.78615855  2655,6712.498000000001,91.219,335.135,333.592,0.0
51106.0,STARLINK-3176,PAYLOAD,2022-02-02 22:00:00,15.78023528,0.000111,53.2172,200.9218,76.7738,71.3359,-0.0051413999999999,-0.00811859,0.0,0 STARLINK-3176,1 51106U 22005C   22033.91667824 -.00811859  00000-0 -51414-2 0  9996,2 51106  53.2172 200.9218 0001110  76.7738  71.3359 15.78023528  2706,6714.178000000001,91.253,336.788,335.298,0.0
51106.0,STARLINK-3176,PAYLOAD,2022-02-03 06:00:00,15.77365759,0.0001111,53.2184,199.2615,57.3945,185.1226,-0.0046162,-0.00715768,0.0,0 STARLINK-3176,1 51106U 22005C   22034.25001157 -.00715768  00000-0 -46162-2 0  9991,2 51106  53.2184 199.2615 0001111  57.3945 185.1226 15.77365759  3719,6716.045,91.291,338.656,337.163,0.0
51106.0,STARLINK-3176,PAYLOAD,2022-02-03 14:00:01,15.76858662,0.0001132,53.2176,197.6004,60.1686,275.9776,-0.0055001999999999,-0.00823101,0.0,0 STARLINK-3176,1 51106U 22005C   22034.58334491 -.00823101  00000-0 -55002-2 0  9991,2 51106  53.2176 197.6004 0001132  60.1686 275.9776 15.76858662  3763,6717.484,91.321,340.11,338.589,0.0
51106.0,STARLINK-3176,PAYLOAD,2022-02-03 22:00:01,15.7626908,0.0001107999999999,53.2173,195.9439,57.3077,11.8676,-0.0055966,-0.00816446,0.0,0 STARLINK-3176,1 51106U 22005C   22034.91668981 -.00816446  00000-0 -55966-2 0  9995,2 51106  53.2173 195.9439 0001108  57.3077  11.8676 15.76269080  2864,6719.159000000002,91.355,341.769,340.28,0.0
51106.0,STARLINK-3176,PAYLOAD,2022-02-04 14:00:01,15.7509848,0.0001447,53.2176,192.6316,46.6258,206.3635,-0.005909,-0.00818454,0.0,0 STARLINK-3176,1 51106U 22005C   22035.58335648 -.00818454  00000-0 -59090-2 0  9993,2 51106  53.2176 192.6316 0001447  46.6258 206.3635 15.75098480  3920,6722.488,91.423,345.326,343.38,0.0
